COSMOS 2242             
1 22626U 93024A   26083.94703141  .00002297  00000+0  19905-3 0  9990
2 22626  82.5159 252.1180 0014922 252.5663 107.3928 14.96611109782674
SL-16 R/B               
1 22803U 93059B   26083.93418365 -.00000026  00000+0  10752-4 0  9996
2 22803  70.9927 338.9814 0017628 194.4960 165.5660 14.17235411681692
ARIANE 40 R/B           
1 22830U 93061H   26083.92158756  .00000215  00000+0  94617-4 0  9994
2 22830  98.4889 152.5067 0009811 234.8259 125.2007 14.32868741696283
COSMOS 2278             
1 23087U 94023A   26083.87400702 -.00000247  00000+0 -10460-3 0  9993
2 23087  71.0528 143.3323 0009012 348.7724  11.3197 14.14376963646957
SL-16 R/B               
1 23088U 94023B   26083.98436661  .00000284  00000+0  17146-3 0  9996
2 23088  71.0007  38.7643 0005457 270.9992  89.0505 14.15012454648257
SL-16 R/B               
1 23343U 94074B   26083.82955421  .00000456  00000+0  67738-4 0  9993
2 23343  97.7088 114.0329 0006996 160.1018  13.0541 14.79424414689482
SL-16 R/B               
1 23405U 94077B   26083.96000733  .00000102  00000+0  76620-4 0  9995
2 23405  70.9841 320.3652 0002188 198.3088 161.7957 14.15568712618395
ARIANE 40+ R/B          
1 23561U 95021B   26083.98839523  .00000292  00000+0  10684-3 0  9994
2 23561  98.4470 155.2618 0007966  96.9532  76.0499 14.39783055621448
SL-16 R/B               
1 23705U 95058B   26083.89705937 -.00000181  00000+0 -68382-4 0  9993
2 23705  71.0214 148.3302 0010144  97.5629 262.6647 14.15500443570005
SL-16 R/B               
1 24298U 96051B   26083.89679410  .00000088  00000+0  74462-4 0  9991
2 24298  70.7592 143.0533 0013806 123.7907 236.4530 14.12419856523793
ORBVIEW 2 (SEASTAR)     
1 24883U 97037A   26083.89168794  .00000280  00000+0  11363-3 0  9998
2 24883  98.8594 248.6084 0002592  39.7104 320.4270 14.35505148510655
SL-16 R/B               
1 25400U 98043G   26083.88685867  .00000078  00000+0  51603-4 0  9993
2 25400  98.8280  37.3604 0009406 336.5343  23.5406 14.26053161441151
