CCSDS_OMM_VERS = 2.0
CREATION_DATE  = 
ORIGINATOR     = 

OBJECT_NAME    = COSMOS 2242
OBJECT_ID      = 1993-024A
CENTER_NAME    = EARTH
REF_FRAME      = TEME
TIME_SYSTEM    = UTC
MEAN_ELEMENT_THEORY = SGP/SGP4

EPOCH          = 2026-03-24T22:43:43.513824
MEAN_MOTION    = 14.96611109
ECCENTRICITY   = .00149224
INCLINATION    = 82.5159
RA_OF_ASC_NODE = 252.1180
ARG_OF_PERICENTER = 252.5663
MEAN_ANOMALY   = 107.3928

EPHEMERIS_TYPE = 0
CLASSIFICATION_TYPE = U
NORAD_CAT_ID   = 22626
ELEMENT_SET_NO = 999
REV_AT_EPOCH   = 78267
BSTAR          = .19904769E-3
MEAN_MOTION_DOT = .2297E-4
MEAN_MOTION_DDOT = 0

CCSDS_OMM_VERS = 2.0
CREATION_DATE  = 
ORIGINATOR     = 

OBJECT_NAME    = SL-16 R/B
OBJECT_ID      = 1993-059B
CENTER_NAME    = EARTH
REF_FRAME      = TEME
TIME_SYSTEM    = UTC
MEAN_ELEMENT_THEORY = SGP/SGP4

EPOCH          = 2026-03-24T22:25:13.467360
MEAN_MOTION    = 14.17235411
ECCENTRICITY   = .00176283
INCLINATION    = 70.9927
RA_OF_ASC_NODE = 338.9814
ARG_OF_PERICENTER = 194.4960
MEAN_ANOMALY   = 165.5660

EPHEMERIS_TYPE = 0
CLASSIFICATION_TYPE = U
NORAD_CAT_ID   = 22803
ELEMENT_SET_NO = 999
REV_AT_EPOCH   = 68169
BSTAR          = .10751534E-4
MEAN_MOTION_DOT = -.26E-6
MEAN_MOTION_DDOT = 0

CCSDS_OMM_VERS = 2.0
CREATION_DATE  = 
ORIGINATOR     = 

OBJECT_NAME    = ARIANE 40 R/B
OBJECT_ID      = 1993-061H
CENTER_NAME    = EARTH
REF_FRAME      = TEME
TIME_SYSTEM    = UTC
MEAN_ELEMENT_THEORY = SGP/SGP4

EPOCH          = 2026-03-24T22:07:05.165184
MEAN_MOTION    = 14.32868741
ECCENTRICITY   = .00098119
INCLINATION    = 98.4889
RA_OF_ASC_NODE = 152.5067
ARG_OF_PERICENTER = 234.8259
MEAN_ANOMALY   = 125.2007

EPHEMERIS_TYPE = 0
CLASSIFICATION_TYPE = U
NORAD_CAT_ID   = 22830
ELEMENT_SET_NO = 999
REV_AT_EPOCH   = 69628
BSTAR          = .94617423E-4
MEAN_MOTION_DOT = .215E-5
MEAN_MOTION_DDOT = 0

CCSDS_OMM_VERS = 2.0
CREATION_DATE  = 
ORIGINATOR     = 

OBJECT_NAME    = COSMOS 2278
OBJECT_ID      = 1994-023A
CENTER_NAME    = EARTH
REF_FRAME      = TEME
TIME_SYSTEM    = UTC
MEAN_ELEMENT_THEORY = SGP/SGP4

EPOCH          = 2026-03-24T20:58:34.206528
MEAN_MOTION    = 14.14376963
ECCENTRICITY   = .00090127
INCLINATION    = 71.0528
RA_OF_ASC_NODE = 143.3323
ARG_OF_PERICENTER = 348.7724
MEAN_ANOMALY   = 11.3197

EPHEMERIS_TYPE = 0
CLASSIFICATION_TYPE = U
NORAD_CAT_ID   = 23087
ELEMENT_SET_NO = 999
REV_AT_EPOCH   = 64695
BSTAR          = -.10460066E-3
MEAN_MOTION_DOT = -.247E-5
MEAN_MOTION_DDOT = 0

CCSDS_OMM_VERS = 2.0
CREATION_DATE  = 
ORIGINATOR     = 

OBJECT_NAME    = SL-16 R/B
OBJECT_ID      = 1994-023B
CENTER_NAME    = EARTH
REF_FRAME      = TEME
TIME_SYSTEM    = UTC
MEAN_ELEMENT_THEORY = SGP/SGP4

EPOCH          = 2026-03-24T23:37:29.275104
MEAN_MOTION    = 14.15012454
ECCENTRICITY   = .00054571
INCLINATION    = 71.0007
RA_OF_ASC_NODE = 38.7643
ARG_OF_PERICENTER = 270.9992
MEAN_ANOMALY   = 89.0505

EPHEMERIS_TYPE = 0
CLASSIFICATION_TYPE = U
NORAD_CAT_ID   = 23088
ELEMENT_SET_NO = 999
REV_AT_EPOCH   = 64825
BSTAR          = .17146296E-3
MEAN_MOTION_DOT = .284E-5
MEAN_MOTION_DDOT = 0

CCSDS_OMM_VERS = 2.0
CREATION_DATE  = 
ORIGINATOR     = 

OBJECT_NAME    = SL-16 R/B
OBJECT_ID      = 1994-074B
CENTER_NAME    = EARTH
REF_FRAME      = TEME
TIME_SYSTEM    = UTC
MEAN_ELEMENT_THEORY = SGP/SGP4

EPOCH          = 2026-03-24T19:54:33.483744
MEAN_MOTION    = 14.79424414
ECCENTRICITY   = .00069961
INCLINATION    = 97.7088
RA_OF_ASC_NODE = 114.0329
ARG_OF_PERICENTER = 160.1018
MEAN_ANOMALY   = 13.0541

EPHEMERIS_TYPE = 0
CLASSIFICATION_TYPE = U
NORAD_CAT_ID   = 23343
ELEMENT_SET_NO = 999
REV_AT_EPOCH   = 68948
BSTAR          = .67738382E-4
MEAN_MOTION_DOT = .456E-5
MEAN_MOTION_DDOT = 0

CCSDS_OMM_VERS = 2.0
CREATION_DATE  = 
ORIGINATOR     = 

OBJECT_NAME    = SL-16 R/B
OBJECT_ID      = 1994-077B
CENTER_NAME    = EARTH
REF_FRAME      = TEME
TIME_SYSTEM    = UTC
MEAN_ELEMENT_THEORY = SGP/SGP4

EPOCH          = 2026-03-24T23:02:24.633312
MEAN_MOTION    = 14.15568712
ECCENTRICITY   = .00021887
INCLINATION    = 70.9841
RA_OF_ASC_NODE = 320.3652
ARG_OF_PERICENTER = 198.3088
MEAN_ANOMALY   = 161.7957

EPHEMERIS_TYPE = 0
CLASSIFICATION_TYPE = U
NORAD_CAT_ID   = 23405
ELEMENT_SET_NO = 999
REV_AT_EPOCH   = 61839
BSTAR          = .76620199E-4
MEAN_MOTION_DOT = .102E-5
MEAN_MOTION_DDOT = 0

CCSDS_OMM_VERS = 2.0
CREATION_DATE  = 
ORIGINATOR     = 

OBJECT_NAME    = ARIANE 40+ R/B
OBJECT_ID      = 1995-021B
CENTER_NAME    = EARTH
REF_FRAME      = TEME
TIME_SYSTEM    = UTC
MEAN_ELEMENT_THEORY = SGP/SGP4

EPOCH          = 2026-03-24T23:43:17.347872
MEAN_MOTION    = 14.39783055
ECCENTRICITY   = .00079663
INCLINATION    = 98.4470
RA_OF_ASC_NODE = 155.2618
ARG_OF_PERICENTER = 96.9532
MEAN_ANOMALY   = 76.0499

EPHEMERIS_TYPE = 0
CLASSIFICATION_TYPE = U
NORAD_CAT_ID   = 23561
ELEMENT_SET_NO = 999
REV_AT_EPOCH   = 62144
BSTAR          = .10684397E-3
MEAN_MOTION_DOT = .292E-5
MEAN_MOTION_DDOT = 0

CCSDS_OMM_VERS = 2.0
CREATION_DATE  = 
ORIGINATOR     = 

OBJECT_NAME    = SL-16 R/B
OBJECT_ID      = 1995-058B
CENTER_NAME    = EARTH
REF_FRAME      = TEME
TIME_SYSTEM    = UTC
MEAN_ELEMENT_THEORY = SGP/SGP4

EPOCH          = 2026-03-24T21:31:45.929568
MEAN_MOTION    = 14.15500443
ECCENTRICITY   = .00101446
INCLINATION    = 71.0214
RA_OF_ASC_NODE = 148.3302
ARG_OF_PERICENTER = 97.5629
MEAN_ANOMALY   = 262.6647

EPHEMERIS_TYPE = 0
CLASSIFICATION_TYPE = U
NORAD_CAT_ID   = 23705
ELEMENT_SET_NO = 999
REV_AT_EPOCH   = 57000
BSTAR          = -.68382424E-4
MEAN_MOTION_DOT = -.181E-5
MEAN_MOTION_DDOT = 0

CCSDS_OMM_VERS = 2.0
CREATION_DATE  = 
ORIGINATOR     = 

OBJECT_NAME    = SL-16 R/B
OBJECT_ID      = 1996-051B
CENTER_NAME    = EARTH
REF_FRAME      = TEME
TIME_SYSTEM    = UTC
MEAN_ELEMENT_THEORY = SGP/SGP4

EPOCH          = 2026-03-24T21:31:23.010240
MEAN_MOTION    = 14.12419856
ECCENTRICITY   = .00138067
INCLINATION    = 70.7592
RA_OF_ASC_NODE = 143.0533
ARG_OF_PERICENTER = 123.7907
MEAN_ANOMALY   = 236.4530

EPHEMERIS_TYPE = 0
CLASSIFICATION_TYPE = U
NORAD_CAT_ID   = 24298
ELEMENT_SET_NO = 999
REV_AT_EPOCH   = 52379
BSTAR          = .74462242E-4
MEAN_MOTION_DOT = .88E-6
MEAN_MOTION_DDOT = 0

CCSDS_OMM_VERS = 2.0
CREATION_DATE  = 
ORIGINATOR     = 

OBJECT_NAME    = ORBVIEW 2 (SEASTAR)
OBJECT_ID      = 1997-037A
CENTER_NAME    = EARTH
REF_FRAME      = TEME
TIME_SYSTEM    = UTC
MEAN_ELEMENT_THEORY = SGP/SGP4

EPOCH          = 2026-03-24T21:24:01.838016
MEAN_MOTION    = 14.35505148
ECCENTRICITY   = .0002592
INCLINATION    = 98.8594
RA_OF_ASC_NODE = 248.6084
ARG_OF_PERICENTER = 39.7104
MEAN_ANOMALY   = 320.4270

EPHEMERIS_TYPE = 0
CLASSIFICATION_TYPE = U
NORAD_CAT_ID   = 24883
ELEMENT_SET_NO = 999
REV_AT_EPOCH   = 51065
BSTAR          = .11362806E-3
MEAN_MOTION_DOT = .28E-5
MEAN_MOTION_DDOT = 0

CCSDS_OMM_VERS = 2.0
CREATION_DATE  = 
ORIGINATOR     = 

OBJECT_NAME    = SL-16 R/B
OBJECT_ID      = 1998-043G
CENTER_NAME    = EARTH
REF_FRAME      = TEME
TIME_SYSTEM    = UTC
MEAN_ELEMENT_THEORY = SGP/SGP4

EPOCH          = 2026-03-24T21:17:04.589088
MEAN_MOTION    = 14.26053161
ECCENTRICITY   = .00094064
INCLINATION    = 98.8280
RA_OF_ASC_NODE = 37.3604
ARG_OF_PERICENTER = 336.5343
MEAN_ANOMALY   = 23.5406

EPHEMERIS_TYPE = 0
CLASSIFICATION_TYPE = U
NORAD_CAT_ID   = 25400
ELEMENT_SET_NO = 999
REV_AT_EPOCH   = 44115
BSTAR          = .51603409E-4
MEAN_MOTION_DOT = .78E-6
MEAN_MOTION_DDOT = 0

